NORAD_CAT_ID,OBJECT_NAME,OBJECT_TYPE,EPOCH,MEAN_MOTION,ECCENTRICITY,INCLINATION,RA_OF_ASC_NODE,ARG_OF_PERICENTER,MEAN_ANOMALY,BSTAR,MEAN_MOTION_DOT,MEAN_MOTION_DDOT,TLE_LINE0,TLE_LINE1,TLE_LINE2,SEMIMAJOR_AXIS,PERIOD,APOGEE,PERIGEE,DECAYED
52622.0,STARLINK-4008,PAYLOAD,2024-04-07 10:01:30,15.08828705,0.0001263,53.2152,192.2476,94.2991,265.8145,-9.9425e-05,-1.869e-05,0.0,0 STARLINK-4008,1 52622U 22052AA  24098.41771932 -.00001869  00000-0 -99425-4 0  9994,2 52622  53.2152 192.2476 0001263  94.2991 265.8145 15.08828705105296,6917.915,95.438,540.654,538.906,0.0
52622.0,STARLINK-4008,PAYLOAD,2024-04-07 13:12:17,15.0882894,0.0001216,53.2166,191.6586,84.9778,275.1353,-4.9092e-05,-1.069e-05,0.0,0 STARLINK-4008,1 52622U 22052AA  24098.55019871 -.00001069  00000-0 -49092-4 0  9993,2 52622  53.2166 191.6586 0001216  84.9778 275.1353 15.08828940104939,6917.914,95.438,540.62,538.938,0.0
52622.0,STARLINK-4008,PAYLOAD,2024-04-07 22:44:35,15.08839182,0.0001321,53.2177,189.8721,88.339,271.7753,-5.5808e-05,-1.176e-05,0.0,0 STARLINK-4008,1 52622U 22052AA  24098.94763543 -.00001176  00000-0 -55808-4 0  9999,2 52622  53.2177 189.8721 0001321  88.3390 271.7753 15.08839182104998,6917.883,95.438,540.662,538.834,0.0
52622.0,STARLINK-4008,PAYLOAD,2024-04-08 05:06:08,15.08835253,9.43e-05,53.217,188.6801,74.2145,285.8951,6.9196e-05,8.14e-06,0.0,0 STARLINK-4008,1 52622U 22052AA  24099.21259340  .00000814  00000-0  69196-4 0  9996,2 52622  53.2170 188.6801 0000943  74.2145 285.8951 15.08835253105417,6917.895,95.438,540.412,539.108,0.0
52622.0,STARLINK-4008,PAYLOAD,2024-04-08 13:03:02,15.08844008,0.0001236,53.2168,187.197,93.6324,266.481,0.00016119,2.279e-05,0.0,0 STARLINK-4008,1 52622U 22052AA  24099.54378441  .00002279  00000-0  16119-3 0  9999,2 52622  53.2168 187.1970 0001236  93.6324 266.4810 15.08844008105467,6917.868,95.437,540.588,538.878,0.0
52622.0,STARLINK-4008,PAYLOAD,2024-04-08 22:35:22,15.08839464,0.0001185,53.2169,185.4133,91.1809,268.9319,0.00015523,2.183e-05,0.0,0 STARLINK-4008,1 52622U 22052AA  24099.94122736  .00002183  00000-0  15523-3 0  9999,2 52622  53.2169 185.4133 0001185  91.1809 268.9319 15.08839464105140,6917.882,95.438,540.567,538.927,0.0
52622.0,STARLINK-4008,PAYLOAD,2024-04-09 09:43:04,15.0884376,9.13e-05,53.2155,183.33,82.4949,277.6147,-5.0106e-05,-1.085e-05,0.0,0 STARLINK-4008,1 52622U 22052AA  24100.40491222 -.00001085  00000-0 -50106-4 0  9991,2 52622  53.2155 183.3300 0000913  82.4949 277.6147 15.08843760105212,6917.869,95.437,540.365,539.102,0.0
52622.0,STARLINK-4008,PAYLOAD,2024-04-09 16:04:36,15.08843358,0.0001625,53.2153,182.1397,84.1375,275.9802,0.00014908,2.086e-05,0.0,0 STARLINK-4008,1 52622U 22052AA  24100.66986648  .00002086  00000-0  14908-3 0  9999,2 52622  53.2153 182.1397 0001625  84.1375 275.9802 15.08843358105252,6917.87,95.437,540.859,538.611,0.0
52622.0,STARLINK-4008,PAYLOAD,2024-04-10 04:47:41,15.08847303,0.0001635,53.2142,179.76,82.2336,277.8841,3.6234e-05,2.89e-06,0.0,0 STARLINK-4008,1 52622U 22052AA  24101.19978570  .00000289  00000-0  36234-4 0  9993,2 52622  53.2142 179.7600 0001635  82.2336 277.8841 15.08847303105715,6917.858,95.437,540.854,538.592,0.0
52622.0,STARLINK-4008,PAYLOAD,2024-04-10 09:33:50,15.08847755,0.0001798,53.2173,178.8689,97.0604,263.0593,-7.5374e-07,-3e-06,0.0,0 STARLINK-4008,1 52622U 22052AA  24101.39850529 -.00000300  00000-0 -75374-6 0  9994,2 52622  53.2173 178.8689 0001798  97.0604 263.0593 15.08847755105361,6917.857,95.437,540.966,538.478,0.0
52622.0,STARLINK-4008,PAYLOAD,2024-04-10 22:16:56,15.0884247,0.0001583,53.2177,176.4903,87.3053,272.8121,1.9916e-05,2.9e-07,0.0,0 STARLINK-4008,1 52622U 22052AA  24101.92842612  .00000029  00000-0  19916-4 0  9991,2 52622  53.2177 176.4903 0001583  87.3053 272.8121 15.08842470105443,6917.873,95.437,540.833,538.643,0.0
52622.0,STARLINK-4008,PAYLOAD,2024-04-11 04:38:28,15.08841124,0.0002262,53.2173,175.3015,86.7199,273.4052,-2.9232e-05,-7.54e-06,0.0,0 STARLINK-4008,1 52622U 22052AA  24102.19339075 -.00000754  00000-0 -29232-4 0  9994,2 52622  53.2173 175.3015 0002262  86.7199 273.4052 15.08841124105861,6917.877,95.437,541.307,538.177,0.0
52622.0,STARLINK-4008,PAYLOAD,2024-04-11 11:00:01,15.08835609,0.00017,53.2132,174.1089,92.2832,267.8354,-2.5758e-05,-6.98e-06,0.0,0 STARLINK-4008,1 52622U 22052AA  24102.45835146 -.00000698  00000-0 -25758-4 0  9999,2 52622  53.2132 174.1089 0001700  92.2832 267.8354 15.08835609105522,6917.894,95.438,540.935,538.583,0.0
52622.0,STARLINK-4008,PAYLOAD,2024-04-11 22:07:43,15.0883786,0.0001775,53.2161,172.0282,107.6668,252.4518,-1.7556e-05,-5.67e-06,0.0,0 STARLINK-4008,1 52622U 22052AA  24102.92203023 -.00000567  00000-0 -17556-4 0  9996,2 52622  53.2161 172.0282 0001775 107.6668 252.4518 15.08837860105596,6917.887,95.438,540.98,538.524,0.0
52622.0,STARLINK-4008,PAYLOAD,2024-04-12 10:50:48,15.08843594,0.0001435,53.2157,169.6493,101.0894,259.026,2.669e-05,1.37e-06,0.0,0 STARLINK-4008,1 52622U 22052AA  24103.45194504  .00000137  00000-0  26690-4 0  9998,2 52622  53.2157 169.6493 0001435 101.0894 259.0260 15.08843594106059,6917.869,95.437,540.727,538.742,0.0
52622.0,STARLINK-4008,PAYLOAD,2024-04-13 09:06:12,15.08834113,0.0001417,53.2156,165.486,100.4774,259.6378,8.2782e-05,1.03e-05,0.0,0 STARLINK-4008,1 52622U 22052AA  24104.37931073  .00001030  00000-0  82782-4 0  9997,2 52622  53.2156 165.4860 0001417 100.4774 259.6378 15.08834113106198,6917.898,95.438,540.744,538.783,0.0
52622.0,STARLINK-4008,PAYLOAD,2024-04-14 10:32:22,15.08837723,0.0001673,53.2171,160.7287,107.614,252.5035,1.1186e-05,-1.1e-06,0.0,0 STARLINK-4008,1 52622U 22052AA  24105.43915347 -.00000110  00000-0  11186-4 0  9990,2 52622  53.2171 160.7287 0001673 107.6140 252.5035 15.08837723106356,6917.887,95.438,540.91,538.595,0.0
52622.0,STARLINK-4008,PAYLOAD,2024-04-15 08:47:46,15.08836638,0.0001628,53.2171,156.5662,102.1692,257.9483,6.0258e-05,6.71e-06,0.0,0 STARLINK-4008,1 52622U 22052AA  24106.36651541  .00000671  00000-0  60258-4 0  9991,2 52622  53.2171 156.5662 0001628 102.1692 257.9483 15.08836638106112,6917.891,95.438,540.882,538.629,0.0
52622.0,STARLINK-4008,PAYLOAD,2024-04-15 19:55:29,15.08836869,0.0001595,53.2171,154.4854,97.7239,262.3935,5.9032e-05,6.52e-06,0.0,0 STARLINK-4008,1 52622U 22052AA  24106.83019696  .00000652  00000-0  59032-4 0  9999,2 52622  53.2171 154.4854 0001595  97.7239 262.3935 15.08836869106568,6917.89,95.438,540.858,538.652,0.0
52622.0,STARLINK-4008,PAYLOAD,2024-04-16 10:13:56,15.0884242,0.0001619,53.2175,151.8112,100.9807,259.1367,0.00010772,1.427e-05,0.0,0 STARLINK-4008,1 52622U 22052AA  24107.42635389  .00001427  00000-0  10772-3 0  9996,2 52622  53.2175 151.8112 0001619 100.9807 259.1367 15.08842420106276,6917.873,95.437,540.858,538.618,0.0
52622.0,STARLINK-4008,PAYLOAD,2024-04-17 11:40:06,15.08850619,0.0001441,53.2167,147.0527,98.4055,261.71,0.0001213,1.644e-05,0.0,0 STARLINK-4008,1 52622U 22052AA  24108.48618744  .00001644  00000-0  12130-3 0  9990,2 52622  53.2167 147.0527 0001441  98.4055 261.7100 15.08850619106816,6917.848,95.437,540.71,538.716,0.0
52622.0,STARLINK-4008,PAYLOAD,2024-04-18 03:33:59,15.08828629,0.0001344,53.217,144.0799,105.3735,254.7406,-4.3403e-05,-9.78e-06,0.0,0 STARLINK-4008,1 52622U 22052AA  24109.14860839 -.00000978  00000-0 -43403-4 0  9997,2 52622  53.2170 144.0799 0001344 105.3735 254.7406 15.08828629106911,6917.915,95.438,540.71,538.85,0.0
52622.0,STARLINK-4008,PAYLOAD,2024-04-18 11:30:55,15.08835109,0.0001461,53.2166,142.592,102.999,257.1166,-2.3721e-05,-6.65e-06,0.0,0 STARLINK-4008,1 52622U 22052AA  24109.47980563 -.00000665  00000-0 -23721-4 0  9994,2 52622  53.2166 142.5920 0001461 102.9990 257.1166 15.08835109106585,6917.895,95.438,540.771,538.75,0.0
52622.0,STARLINK-4008,PAYLOAD,2024-04-19 08:10:51,15.08900246,0.0001221,53.2167,138.7241,89.5572,270.556,0.00049177,7.56e-05,0.0,0 STARLINK-4008,1 52622U 22052AA  24110.34087329  .00007560  00000-0  49177-3 0  9991,2 52622  53.2167 138.7241 0001221  89.5572 270.5560 15.08900246107098,6917.696,95.434,540.406,538.717,0.0
52622.0,STARLINK-4008,PAYLOAD,2024-04-20 04:50:55,15.08855358,9.68e-05,53.2153,134.8557,98.3073,261.8029,0.00036039,5.455e-05,0.0,0 STARLINK-4008,1 52622U 22052AA  24111.20202812  .00005455  00000-0  36039-3 0  9997,2 52622  53.2153 134.8557 0000968  98.3073 261.8029 15.08855358107222,6917.833,95.437,540.368,539.029,0.0
52622.0,STARLINK-4008,PAYLOAD,2024-04-20 08:01:41,15.08849381,0.0001349,53.217,134.2584,124.8624,235.2495,0.00024895,3.677e-05,0.0,0 STARLINK-4008,1 52622U 22052AA  24111.33450247  .00003677  00000-0  24895-3 0  9999,2 52622  53.2170 134.2584 0001349 124.8624 235.2495 15.08849381106866,6917.852,95.437,540.65,538.783,0.0
52622.0,STARLINK-4008,PAYLOAD,2024-04-21 04:41:44,15.08822741,0.0001475,53.217,130.3912,126.6441,233.4687,-0.00017565,-3.081e-05,0.0,0 STARLINK-4008,1 52622U 22052AA  24112.19565775 -.00003081  00000-0 -17565-3 0  9994,2 52622  53.2170 130.3912 0001475 126.6441 233.4687 15.08822741107376,6917.933,95.439,540.819,538.778,0.0
52622.0,STARLINK-4008,PAYLOAD,2024-04-21 11:03:18,15.08818672,0.0001242,53.2166,129.2097,96.9864,263.1269,-0.00014934,-2.662e-05,0.0,0 STARLINK-4008,1 52622U 22052AA  24112.46062601 -.00002662  00000-0 -14934-3 0  9995,2 52622  53.2166 129.2097 0001242  96.9864 263.1269 15.08818672107039,6917.946,95.439,540.67,538.951,0.0
52622.0,STARLINK-4008,PAYLOAD,2024-04-22 04:32:31,15.08827533,9.79e-05,53.2173,125.9375,93.37,266.7405,5.9223e-06,-1.93e-06,0.0,0 STARLINK-4008,1 52622U 22052AA  24113.18925823 -.00000193  00000-0  59223-5 0  9997,2 52622  53.2173 125.9375 0000979  93.3700 266.7405 15.08827533107526,6917.918,95.438,540.461,539.106,0.0
52622.0,STARLINK-4008,PAYLOAD,2024-04-22 07:43:18,15.08830379,0.0001238,53.2162,125.3423,102.3371,257.776,0.00016384,2.32e-05,0.0,0 STARLINK-4008,1 52622U 22052AA  24113.32173828  .00002320  00000-0  16384-3 0  9995,2 52622  53.2162 125.3423 0001238 102.3371 257.7760 15.08830379107162,6917.91,95.438,540.631,538.918,0.0
